{
    "links": {
        "self": "http://www.neowsapp.com/rest/v1/neo/3991556?api_key=iIulBulltgU6a56xZRHN4H3l9WmuAYTsLGpBGhQ2"
    },
    "id": "3991556",
    "neo_reference_id": "3991556",
    "name": "(2020 CD2)",
    "designation": "2020 CD2",
    "nasa_jpl_url": "http://ssd.jpl.nasa.gov/sbdb.cgi?sstr=3991556",
    "absolute_magnitude_h": 21.286,
    "estimated_diameter": {
        "kilometers": {
            "estimated_diameter_min": 0.1470127416,
            "estimated_diameter_max": 0.3287304837
        },
        "meters": {
            "estimated_diameter_min": 147.0127415688,
            "estimated_diameter_max": 328.7304837064
        },
        "miles": {
            "estimated_diameter_min": 0.0913494542,
            "estimated_diameter_max": 0.2042635894
        },
        "feet": {
            "estimated_diameter_min": 482.3252830485,
            "estimated_diameter_max": 1078.5121201633
        }
    },
    "is_potentially_hazardous_asteroid": false,
    "close_approach_data": [
        {
            "close_approach_date": "2020-02-03",
            "close_approach_date_full": "2020-Feb-03 01:41",
            "epoch_date_close_approach": 1580694060000,
            "relative_velocity": {
                "kilometers_per_second": "13.81569795",
                "kilometers_per_hour": "49736.5126199698",
                "miles_per_hour": "30904.3347443362"
            },
            "miss_distance": {
                "astronomical": "0.3356096576",
                "lunar": "130.5521568064",
                "kilometers": "50206489.928389312",
                "miles": "31196866.2235920256"
            },
            "orbiting_body": "Earth"
        },
        {
            "close_approach_date": "2029-02-07",
            "close_approach_date_full": "2029-Feb-07 06:43",
            "epoch_date_close_approach": 1865140980000,
            "relative_velocity": {
                "kilometers_per_second": "11.429372398",
                "kilometers_per_hour": "41145.7406327417",
                "miles_per_hour": "25566.36311705"
            },
            "miss_distance": {
                "astronomical": "0.1502275905",
                "lunar": "58.4385327045",
                "kilometers": "22473727.554032235",
                "miles": "13964526.758365443"
            },
            "orbiting_body": "Earth"
        }
    ],
    "orbital_data": {
        "orbit_id": "3",
        "orbit_determination_date": "2020-02-24 12:38:03",
        "first_observation_date": "2020-01-21",
        "last_observation_date": "2020-02-23",
        "data_arc_in_days": 33,
        "observations_used": 20,
        "orbit_uncertainty": "7",
        "minimum_orbit_intersection": ".142474",
        "jupiter_tisserand_invariant": "4.030",
        "epoch_osculation": "2459000.5",
        "eccentricity": ".3456215190907382",
        "semi_major_axis": "1.723899263417161",
        "inclination": "20.56432802707205",
        "ascending_node_longitude": "316.3359690930205",
        "orbital_period": "826.7348649430794",
        "perihelion_distance": "1.128082581235517",
        "perihelion_argument": "184.2114138375023",
        "aphelion_distance": "2.319715945598805",
        "perihelion_time": "2458872.643898068163",
        "mean_anomaly": "55.67467715133833",
        "mean_motion": ".4354479474199821",
        "equinox": "J2000",
        "orbit_class": {
            "orbit_class_type": "AMO",
            "orbit_class_description": "Near-Earth asteroid orbits similar to that of 1221 Amor",
            "orbit_class_range": "1.017 AU < q (perihelion) < 1.3 AU"
        }
    },
    "is_sentry_object": false
}